{"type": "FeatureCollection", "features": [ {"type": "Feature", "properties": {"norad_id": 66918, "name": "HULIANWANG DIGUI-108", "group": "last-30-days", "lat": -46.39704796241809, "lon": -10.85879549061285, "alt_km": 875.7006472579469, "timestamp": "2025-12-15T04:01:19.182337+00:00", "meta": {"OBJECT_NAME": "HULIANWANG DIGUI-108", "OBJECT_ID": "2025-285D", "EPOCH": "2025-12-14T08:03:37.369152", "MEAN_MOTION": 14.05417522, "ECCENTRICITY": 0.0006314, "INCLINATION": 50.0089, "RA_OF_ASC_NODE": 110.7358, "ARG_OF_PERICENTER": 283.2589, "MEAN_ANOMALY": 76.7612, "EPHEMERIS_TYPE": 0, "CLASSIFICATION_TYPE": "U", "NORAD_CAT_ID": 66918, "ELEMENT_SET_NO": 999, "REV_AT_EPOCH": 113, "BSTAR": 0.00014847105, "MEAN_MOTION_DOT": 9e-07, "MEAN_MOTION_DDOT": 0}, "tle": {"line1": "1 66918U 25285D   25348.33584918  .00000090  00000+0  14847-3 0  9990", "line2": "2 66918  50.0089 110.7358 0006314 283.2589  76.7612 14.05417522  1135"}}, "geometry": {"type": "Point", "coordinates": [-10.85879549061285, -46.39704796241809]}}, {"type": "Feature", "properties": {"norad_id": 66919, "name": "HULIANWANG DIGUI-109", "group": "last-30-days", "lat": -46.87597435273293, "lon": -8.989788297443951, "alt_km": 874.5675298010647, "timestamp": "2025-12-15T04:01:19.182349+00:00", "meta": {"OBJECT_NAME": "HULIANWANG DIGUI-109", "OBJECT_ID": "2025-285E", "EPOCH": "2025-12-14T08:03:28.700640", "MEAN_MOTION": 14.05717696, "ECCENTRICITY": 0.00078921, "INCLINATION": 50.0064, "RA_OF_ASC_NODE": 110.7355, "ARG_OF_PERICENTER": 297.0727, "MEAN_ANOMALY": 62.9372, "EPHEMERIS_TYPE": 0, "CLASSIFICATION_TYPE": "U", "NORAD_CAT_ID": 66919, "ELEMENT_SET_NO": 999, "REV_AT_EPOCH": 113, "BSTAR": 0.00015709328, "MEAN_MOTION_DOT": 1.06e-06, "MEAN_MOTION_DDOT": 0}, "tle": {"line1": "1 66919U 25285E   25348.33574885  .00000106  00000+0  15709-3 0  9999", "line2": "2 66919  50.0064 110.7355 0007892 297.0727  62.9372 14.05717696  1130"}}, "geometry": {"type": "Point", "coordinates": [-8.989788297443951, -46.87597435273293]}}, {"type": "Feature", "properties": {"norad_id": 66920, "name": "HULIANWANG DIGUI-110", "group": "last-30-days", "lat": -48.160184601727785, "lon": -3.041896231320129, "alt_km": 874.7718189992775, "timestamp": "2025-12-15T04:01:19.182359+00:00", "meta": {"OBJECT_NAME": "HULIANWANG DIGUI-110", "OBJECT_ID": "2025-285F", "EPOCH": "2025-12-14T08:02:24.203040", "MEAN_MOTION": 14.05851874, "ECCENTRICITY": 0.00058537, "INCLINATION": 50.0097, "RA_OF_ASC_NODE": 110.7358, "ARG_OF_PERICENTER": 293.8936, "MEAN_ANOMALY": 66.1355, "EPHEMERIS_TYPE": 0, "CLASSIFICATION_TYPE": "U", "NORAD_CAT_ID": 66920, "ELEMENT_SET_NO": 999, "REV_AT_EPOCH": 113, "BSTAR": 0.00014216705, "MEAN_MOTION_DOT": 8.2e-07, "MEAN_MOTION_DDOT": 0}, "tle": {"line1": "1 66920U 25285F   25348.33500235  .00000082  00000+0  14217-3 0  9995", "line2": "2 66920  50.0097 110.7358 0005853 293.8936  66.1355 14.05851874  1136"}}, "geometry": {"type": "Point", "coordinates": [-3.041896231320129, -48.160184601727785]}}, {"type": "Feature", "properties": {"norad_id": 66921, "name": "HULIANWANG DIGUI-111", "group": "last-30-days", "lat": -48.433675341756036, "lon": -1.5042984140192992, "alt_km": 874.3547888634675, "timestamp": "2025-12-15T04:01:19.182369+00:00", "meta": {"OBJECT_NAME": "HULIANWANG DIGUI-111", "OBJECT_ID": "2025-285G", "EPOCH": "2025-12-14T08:02:07.463904", "MEAN_MOTION": 14.05885577, "ECCENTRICITY": 0.00069976, "INCLINATION": 50.0112, "RA_OF_ASC_NODE": 110.7371, "ARG_OF_PERICENTER": 300.3369, "MEAN_ANOMALY": 59.6844, "EPHEMERIS_TYPE": 0, "CLASSIFICATION_TYPE": "U", "NORAD_CAT_ID": 66921, "ELEMENT_SET_NO": 999, "REV_AT_EPOCH": 113, "BSTAR": 0.00014785681, "MEAN_MOTION_DOT": 9.1e-07, "MEAN_MOTION_DDOT": 0}, "tle": {"line1": "1 66921U 25285G   25348.33480861  .00000091  00000+0  14786-3 0  9999", "line2": "2 66921  50.0112 110.7371 0006997 300.3369  59.6844 14.05885577  1131"}}, "geometry": {"type": "Point", "coordinates": [-1.5042984140192992, -48.433675341756036]}}, {"type": "Feature", "properties": {"norad_id": 66922, "name": "HULIANWANG DIGUI-112", "group": "last-30-days", "lat": -49.20523443760616, "lon": 3.8771689011443353, "alt_km": 874.1761746783941, "timestamp": "2025-12-15T04:01:19.182381+00:00", "meta": {"OBJECT_NAME": "HULIANWANG DIGUI-112", "OBJECT_ID": "2025-285H", "EPOCH": "2025-12-14T08:01:11.368704", "MEAN_MOTION": 14.06001185, "ECCENTRICITY": 0.00069588, "INCLINATION": 50.0087, "RA_OF_ASC_NODE": 110.7289, "ARG_OF_PERICENTER": 306.6717, "MEAN_ANOMALY": 53.3548, "EPHEMERIS_TYPE": 0, "CLASSIFICATION_TYPE": "U", "NORAD_CAT_ID": 66922, "ELEMENT_SET_NO": 999, "REV_AT_EPOCH": 113, "BSTAR": 0.00014745774, "MEAN_MOTION_DOT": 9.1e-07, "MEAN_MOTION_DDOT": 0}, "tle": {"line1": "1 66922U 25285H   25348.33415936  .00000091  00000+0  14746-3 0  9997", "line2": "2 66922  50.0087 110.7289 0006958 306.6717  53.3548 14.06001185  1132"}}, "geometry": {"type": "Point", "coordinates": [3.8771689011443353, -49.20523443760616]}}, {"type": "Feature", "properties": {"norad_id": 66923, "name": "HULIANWANG DIGUI-113", "group": "last-30-days", "lat": -49.50091125175812, "lon": 6.680839724380568, "alt_km": 874.3978797721184, "timestamp": "2025-12-15T04:01:19.182392+00:00", "meta": {"OBJECT_NAME": "HULIANWANG DIGUI-113", "OBJECT_ID": "2025-285J", "EPOCH": "2025-12-14T08:00:43.104672", "MEAN_MOTION": 14.06057103, "ECCENTRICITY": 0.0005423, "INCLINATION": 50.0085, "RA_OF_ASC_NODE": 110.7283, "ARG_OF_PERICENTER": 301.5227, "MEAN_ANOMALY": 58.5148, "EPHEMERIS_TYPE": 0, "CLASSIFICATION_TYPE": "U", "NORAD_CAT_ID": 66923, "ELEMENT_SET_NO": 999, "REV_AT_EPOCH": 113, "BSTAR": 0.00014434102, "MEAN_MOTION_DOT": 8.6e-07, "MEAN_MOTION_DDOT": 0}, "tle": {"line1": "1 66923U 25285J   25348.33383223  .00000086  00000+0  14434-3 0  9999", "line2": "2 66923  50.0085 110.7283 0005423 301.5227  58.5148 14.06057103  1135"}}, "geometry": {"type": "Point", "coordinates": [6.680839724380568, -49.50091125175812]}}, {"type": "Feature", "properties": {"norad_id": 66924, "name": "CZ-8A R/B", "group": "last-30-days", "lat": -31.67264455203317, "lon": 74.62700038730644, "alt_km": 873.1063801607179, "timestamp": "2025-12-15T04:01:19.182402+00:00", "meta": {"OBJECT_NAME": "CZ-8A R/B", "OBJECT_ID": "2025-285K", "EPOCH": "2025-12-14T01:24:06.800256", "MEAN_MOTION": 14.30502477, "ECCENTRICITY": 0.01193292, "INCLINATION": 50.0067, "RA_OF_ASC_NODE": 110.5412, "ARG_OF_PERICENTER": 111.3842, "MEAN_ANOMALY": 249.9855, "EPHEMERIS_TYPE": 0, "CLASSIFICATION_TYPE": "U", "NORAD_CAT_ID": 66924, "ELEMENT_SET_NO": 999, "REV_AT_EPOCH": 111, "BSTAR": 7.5121716e-05, "MEAN_MOTION_DOT": 4.6e-07, "MEAN_MOTION_DDOT": 0}, "tle": {"line1": "1 66924U 25285K   25348.05841204  .00000046  00000+0  75122-4 0  9995", "line2": "2 66924  50.0067 110.5412 0119329 111.3842 249.9855 14.30502477  1114"}}, "geometry": {"type": "Point", "coordinates": [74.62700038730644, -31.67264455203317]}}, {"type": "Feature", "properties": {"norad_id": 66925, "name": "STARLINK-35945", "group": "last-30-days", "lat": 10.564033451520178, "lon": 46.39580866892812, "alt_km": 296.9977321112756, "timestamp": "2025-12-15T04:01:19.182413+00:00", "meta": {"OBJECT_NAME": "STARLINK-35945", "OBJECT_ID": "2025-286A", "EPOCH": "2025-12-14T06:00:02.999808", "MEAN_MOTION": 15.93822682, "ECCENTRICITY": 8.443e-05, "INCLINATION": 53.1578, "RA_OF_ASC_NODE": 43.0382, "ARG_OF_PERICENTER": 85.9465, "MEAN_ANOMALY": 63.2898, "EPHEMERIS_TYPE": 0, "CLASSIFICATION_TYPE": "U", "NORAD_CAT_ID": 66925, "ELEMENT_SET_NO": 999, "REV_AT_EPOCH": 223, "BSTAR": -0.003353938, "MEAN_MOTION_DOT": -0.01252121, "MEAN_MOTION_DDOT": 0.00046857117}, "tle": {"line1": "1 66925U 25286A   25348.25003472 -.01252121  46857-3 -33539-2 0  9990", "line2": "2 66925  53.1578  43.0382 0000844  85.9465  63.2898 15.93822682  2231"}}, "geometry": {"type": "Point", "coordinates": [46.39580866892812, 10.564033451520178]}}, {"type": "Feature", "properties": {"norad_id": 66926, "name": "STARLINK-35942", "group": "last-30-days", "lat": 13.606150081297947, "lon": 48.80546179324967, "alt_km": 296.1431220669019, "timestamp": "2025-12-15T04:01:19.182426+00:00", "meta": {"OBJECT_NAME": "STARLINK-35942", "OBJECT_ID": "2025-286B", "EPOCH": "2025-12-14T06:00:02.999808", "MEAN_MOTION": 15.939754, "ECCENTRICITY": 8.155e-05, "INCLINATION": 53.1577, "RA_OF_ASC_NODE": 43.031, "ARG_OF_PERICENTER": 85.2168, "MEAN_ANOMALY": 67.4039, "EPHEMERIS_TYPE": 0, "CLASSIFICATION_TYPE": "U", "NORAD_CAT_ID": 66926, "ELEMENT_SET_NO": 999, "REV_AT_EPOCH": 223, "BSTAR": -0.0033646243, "MEAN_MOTION_DOT": -0.01266163, "MEAN_MOTION_DDOT": 0.0004789048}, "tle": {"line1": "1 66926U 25286B   25348.25003472 -.01266163  47890-3 -33646-2 0  9999", "line2": "2 66926  53.1577  43.0310 0000815  85.2168  67.4039 15.93975400  2233"}}, "geometry": {"type": "Point", "coordinates": [48.80546179324967, 13.606150081297947]}}, {"type": "Feature", "properties": {"norad_id": 66927, "name": "STARLINK-35943", "group": "last-30-days", "lat": 14.941586903149343, "lon": 49.88833025343569, "alt_km": 295.6839400980216, "timestamp": "2025-12-15T04:01:19.182436+00:00", "meta": {"OBJECT_NAME": "STARLINK-35943", "OBJECT_ID": "2025-286C", "EPOCH": "2025-12-14T06:00:02.999808", "MEAN_MOTION": 15.94040775, "ECCENTRICITY": 9.16e-05, "INCLINATION": 53.1578, "RA_OF_ASC_NODE": 43.0282, "ARG_OF_PERICENTER": 82.0286, "MEAN_ANOMALY": 72.0745, "EPHEMERIS_TYPE": 0, "CLASSIFICATION_TYPE": "U", "NORAD_CAT_ID": 66927, "ELEMENT_SET_NO": 999, "REV_AT_EPOCH": 223, "BSTAR": -0.0033516287, "MEAN_MOTION_DOT": -0.01265678, "MEAN_MOTION_DDOT": 0.00047888177}, "tle": {"line1": "1 66927U 25286C   25348.25003472 -.01265678  47888-3 -33516-2 0  9993", "line2": "2 66927  53.1578  43.0282 0000916  82.0286  72.0745 15.94040775  2236"}}, "geometry": {"type": "Point", "coordinates": [49.88833025343569, 14.941586903149343]}}]}